{"type": "FeatureCollection", "features": [ {"type": "Feature", "properties": {"norad_id": 43565, "name": "GSAT0222 (GALILEO 26)", "group": "gnss", "lat": -19.4561860580058, "lon": -26.690249358384534, "alt_km": 23218.480757151596, "timestamp": "2025-12-25T14:48:25.023512+00:00", "meta": {"OBJECT_NAME": "GSAT0222 (GALILEO 26)", "OBJECT_ID": "2018-060B", "EPOCH": "2025-12-22T03:15:04.306464", "MEAN_MOTION": 1.70475514, "ECCENTRICITY": 0.000605, "INCLINATION": 57.229, "RA_OF_ASC_NODE": 346.567, "ARG_OF_PERICENTER": 266.9186, "MEAN_ANOMALY": 93.0201, "EPHEMERIS_TYPE": 0, "CLASSIFICATION_TYPE": "U", "NORAD_CAT_ID": 43565, "ELEMENT_SET_NO": 999, "REV_AT_EPOCH": 4619, "BSTAR": 0, "MEAN_MOTION_DOT": -6.5e-07, "MEAN_MOTION_DDOT": 0}, "tle": {"line1": "1 43565U 18060B   25356.13546651 -.00000065  00000+0  00000+0 0  9990", "line2": "2 43565  57.2290 346.5670 0006050 266.9186  93.0201  1.70475514 46199"}}, "geometry": {"type": "Point", "coordinates": [-26.690249358384534, -19.4561860580058]}}, {"type": "Feature", "properties": {"norad_id": 43566, "name": "GSAT0219 (GALILEO 23)", "group": "gnss", "lat": -17.42508795352414, "lon": 178.12718009028893, "alt_km": 23224.553981306603, "timestamp": "2025-12-25T14:48:25.023525+00:00", "meta": {"OBJECT_NAME": "GSAT0219 (GALILEO 23)", "OBJECT_ID": "2018-060C", "EPOCH": "2025-12-22T08:33:30.157056", "MEAN_MOTION": 1.70475755, "ECCENTRICITY": 0.00058833, "INCLINATION": 57.2283, "RA_OF_ASC_NODE": 346.5626, "ARG_OF_PERICENTER": 291.1394, "MEAN_ANOMALY": 68.8055, "EPHEMERIS_TYPE": 0, "CLASSIFICATION_TYPE": "U", "NORAD_CAT_ID": 43566, "ELEMENT_SET_NO": 999, "REV_AT_EPOCH": 4617, "BSTAR": 0, "MEAN_MOTION_DOT": -6.5e-07, "MEAN_MOTION_DDOT": 0}, "tle": {"line1": "1 43566U 18060C   25356.35659904 -.00000065  00000+0  00000+0 0  9991", "line2": "2 43566  57.2283 346.5626 0005883 291.1394  68.8055  1.70475755 46179"}}, "geometry": {"type": "Point", "coordinates": [178.12718009028893, -17.42508795352414]}}, {"type": "Feature", "properties": {"norad_id": 43567, "name": "GSAT0220 (GALILEO 24)", "group": "gnss", "lat": 49.83062703057028, "lon": 36.198399907435046, "alt_km": 23229.421915062263, "timestamp": "2025-12-25T14:48:25.023546+00:00", "meta": {"OBJECT_NAME": "GSAT0220 (GALILEO 24)", "OBJECT_ID": "2018-060D", "EPOCH": "2025-12-23T03:56:18.956256", "MEAN_MOTION": 1.70475727, "ECCENTRICITY": 0.00061193, "INCLINATION": 57.2279, "RA_OF_ASC_NODE": 346.5416, "ARG_OF_PERICENTER": 288.3355, "MEAN_ANOMALY": 71.6054, "EPHEMERIS_TYPE": 0, "CLASSIFICATION_TYPE": "U", "NORAD_CAT_ID": 43567, "ELEMENT_SET_NO": 999, "REV_AT_EPOCH": 4617, "BSTAR": 0, "MEAN_MOTION_DOT": -6.3e-07, "MEAN_MOTION_DDOT": 0}, "tle": {"line1": "1 43567U 18060D   25357.16410829 -.00000063  00000+0  00000+0 0  9991", "line2": "2 43567  57.2279 346.5416 0006119 288.3355  71.6054  1.70475727 46170"}}, "geometry": {"type": "Point", "coordinates": [36.198399907435046, 49.83062703057028]}}, {"type": "Feature", "properties": {"norad_id": 43581, "name": "BEIDOU-3 M5 (C23)", "group": "gnss", "lat": -28.29819704992503, "lon": 165.2348420906839, "alt_km": 21527.608058581216, "timestamp": "2025-12-25T14:48:25.023557+00:00", "meta": {"OBJECT_NAME": "BEIDOU-3 M5 (C23)", "OBJECT_ID": "2018-062A", "EPOCH": "2025-12-24T01:25:43.982112", "MEAN_MOTION": 1.86228769, "ECCENTRICITY": 0.0001922, "INCLINATION": 54.09, "RA_OF_ASC_NODE": 188.2582, "ARG_OF_PERICENTER": 1.0455, "MEAN_ANOMALY": 358.9913, "EPHEMERIS_TYPE": 0, "CLASSIFICATION_TYPE": "U", "NORAD_CAT_ID": 43581, "ELEMENT_SET_NO": 999, "REV_AT_EPOCH": 5037, "BSTAR": 0, "MEAN_MOTION_DOT": 1.01e-06, "MEAN_MOTION_DDOT": 0}, "tle": {"line1": "1 43581U 18062A   25358.05953683  .00000101  00000+0  00000+0 0  9990", "line2": "2 43581  54.0900 188.2582 0001922   1.0455 358.9913  1.86228769 50376"}}, "geometry": {"type": "Point", "coordinates": [165.2348420906839, -28.29819704992503]}}, {"type": "Feature", "properties": {"norad_id": 43582, "name": "BEIDOU-3 M6 (C24)", "group": "gnss", "lat": 42.225047133745505, "lon": -130.6630760522793, "alt_km": 21501.23191245042, "timestamp": "2025-12-25T14:48:25.023567+00:00", "meta": {"OBJECT_NAME": "BEIDOU-3 M6 (C24)", "OBJECT_ID": "2018-062B", "EPOCH": "2025-12-23T22:08:28.739040", "MEAN_MOTION": 1.86229712, "ECCENTRICITY": 0.00078704, "INCLINATION": 54.0895, "RA_OF_ASC_NODE": 188.252, "ARG_OF_PERICENTER": 49.2706, "MEAN_ANOMALY": 310.8346, "EPHEMERIS_TYPE": 0, "CLASSIFICATION_TYPE": "U", "NORAD_CAT_ID": 43582, "ELEMENT_SET_NO": 999, "REV_AT_EPOCH": 5037, "BSTAR": 0, "MEAN_MOTION_DOT": 1e-06, "MEAN_MOTION_DDOT": 0}, "tle": {"line1": "1 43582U 18062B   25357.92255485  .00000100  00000+0  00000+0 0  9990", "line2": "2 43582  54.0895 188.2520 0007870  49.2706 310.8346  1.86229712 50379"}}, "geometry": {"type": "Point", "coordinates": [-130.6630760522793, 42.225047133745505]}}, {"type": "Feature", "properties": {"norad_id": 43602, "name": "BEIDOU-3 M12 (C26)", "group": "gnss", "lat": 53.42855442947531, "lon": -69.91624010255161, "alt_km": 21507.67135190548, "timestamp": "2025-12-25T14:48:25.023579+00:00", "meta": {"OBJECT_NAME": "BEIDOU-3 M12 (C26)", "OBJECT_ID": "2018-067A", "EPOCH": "2025-12-24T22:25:33.195936", "MEAN_MOTION": 1.86227842, "ECCENTRICITY": 0.00092394, "INCLINATION": 54.1837, "RA_OF_ASC_NODE": 186.9493, "ARG_OF_PERICENTER": 41.7428, "MEAN_ANOMALY": 318.3597, "EPHEMERIS_TYPE": 0, "CLASSIFICATION_TYPE": "U", "NORAD_CAT_ID": 43602, "ELEMENT_SET_NO": 999, "REV_AT_EPOCH": 4987, "BSTAR": 0, "MEAN_MOTION_DOT": 1.08e-06, "MEAN_MOTION_DDOT": 0}, "tle": {"line1": "1 43602U 18067A   25358.93441199  .00000108  00000+0  00000+0 0  9997", "line2": "2 43602  54.1837 186.9493 0009239  41.7428 318.3597  1.86227842 49878"}}, "geometry": {"type": "Point", "coordinates": [-69.91624010255161, 53.42855442947531]}}, {"type": "Feature", "properties": {"norad_id": 43603, "name": "BEIDOU-3 M11 (C25)", "group": "gnss", "lat": 6.001667042663661, "lon": -168.7515745248833, "alt_km": 21514.342176776496, "timestamp": "2025-12-25T14:48:25.023589+00:00", "meta": {"OBJECT_NAME": "BEIDOU-3 M11 (C25)", "OBJECT_ID": "2018-067B", "EPOCH": "2025-12-24T12:46:04.310976", "MEAN_MOTION": 1.86227356, "ECCENTRICITY": 0.00056287, "INCLINATION": 54.181, "RA_OF_ASC_NODE": 186.927, "ARG_OF_PERICENTER": 37.873, "MEAN_ANOMALY": 322.1992, "EPHEMERIS_TYPE": 0, "CLASSIFICATION_TYPE": "U", "NORAD_CAT_ID": 43603, "ELEMENT_SET_NO": 999, "REV_AT_EPOCH": 4989, "BSTAR": 0, "MEAN_MOTION_DOT": 1.05e-06, "MEAN_MOTION_DDOT": 0}, "tle": {"line1": "1 43603U 18067B   25358.53199434  .00000105  00000+0  00000+0 0  9993", "line2": "2 43603  54.1810 186.9270 0005628  37.8730 322.1992  1.86227356 49897"}}, "geometry": {"type": "Point", "coordinates": [-168.7515745248833, 6.001667042663661]}}, {"type": "Feature", "properties": {"norad_id": 43622, "name": "BEIDOU-3 M13 (C32)", "group": "gnss", "lat": 29.81407248065142, "lon": 90.71389560140415, "alt_km": 21527.269410222292, "timestamp": "2025-12-25T14:48:25.023599+00:00", "meta": {"OBJECT_NAME": "BEIDOU-3 M13 (C32)", "OBJECT_ID": "2018-072A", "EPOCH": "2025-12-22T08:10:31.412640", "MEAN_MOTION": 1.86231166, "ECCENTRICITY": 0.00064111, "INCLINATION": 56.4667, "RA_OF_ASC_NODE": 68.5024, "ARG_OF_PERICENTER": 297.4685, "MEAN_ANOMALY": 62.5173, "EPHEMERIS_TYPE": 0, "CLASSIFICATION_TYPE": "U", "NORAD_CAT_ID": 43622, "ELEMENT_SET_NO": 999, "REV_AT_EPOCH": 4936, "BSTAR": 0, "MEAN_MOTION_DOT": -2.9e-07, "MEAN_MOTION_DDOT": 0}, "tle": {"line1": "1 43622U 18072A   25356.34064135 -.00000029  00000+0  00000+0 0  9992", "line2": "2 43622  56.4667  68.5024 0006411 297.4685  62.5173  1.86231166 49361"}}, "geometry": {"type": "Point", "coordinates": [90.71389560140415, 29.81407248065142]}}, {"type": "Feature", "properties": {"norad_id": 43623, "name": "BEIDOU-3 M14 (C33)", "group": "gnss", "lat": 41.86638795230812, "lon": -147.99896448679652, "alt_km": 21532.395840197714, "timestamp": "2025-12-25T14:48:25.023610+00:00", "meta": {"OBJECT_NAME": "BEIDOU-3 M14 (C33)", "OBJECT_ID": "2018-072B", "EPOCH": "2025-12-23T06:43:13.861056", "MEAN_MOTION": 1.86231163, "ECCENTRICITY": 0.00035931, "INCLINATION": 56.4696, "RA_OF_ASC_NODE": 68.4654, "ARG_OF_PERICENTER": 327.0772, "MEAN_ANOMALY": 32.9541, "EPHEMERIS_TYPE": 0, "CLASSIFICATION_TYPE": "U", "NORAD_CAT_ID": 43623, "ELEMENT_SET_NO": 999, "REV_AT_EPOCH": 4937, "BSTAR": 0, "MEAN_MOTION_DOT": -2.6e-07, "MEAN_MOTION_DDOT": 0}, "tle": {"line1": "1 43623U 18072B   25357.28002154 -.00000026  00000+0  00000+0 0  9997", "line2": "2 43623  56.4696  68.4654 0003593 327.0772  32.9541  1.86231163 49375"}}, "geometry": {"type": "Point", "coordinates": [-147.99896448679652, 41.86638795230812]}}, {"type": "Feature", "properties": {"norad_id": 43647, "name": "BEIDOU-3 M16 (C35)", "group": "gnss", "lat": 17.009799634380983, "lon": -41.22832879854363, "alt_km": 21505.09641190351, "timestamp": "2025-12-25T14:48:25.023620+00:00", "meta": {"OBJECT_NAME": "BEIDOU-3 M16 (C35)", "OBJECT_ID": "2018-078A", "EPOCH": "2025-12-25T01:09:54.550656", "MEAN_MOTION": 1.86232271, "ECCENTRICITY": 0.00074722, "INCLINATION": 54.2505, "RA_OF_ASC_NODE": 306.0911, "ARG_OF_PERICENTER": 20.5834, "MEAN_ANOMALY": 339.4558, "EPHEMERIS_TYPE": 0, "CLASSIFICATION_TYPE": "U", "NORAD_CAT_ID": 43647, "ELEMENT_SET_NO": 999, "REV_AT_EPOCH": 4891, "BSTAR": 0, "MEAN_MOTION_DOT": -5.3e-07, "MEAN_MOTION_DDOT": 0}, "tle": {"line1": "1 43647U 18078A   25359.04854804 -.00000053  00000+0  00000+0 0  9992", "line2": "2 43647  54.2505 306.0911 0007472  20.5834 339.4558  1.86232271 48910"}}, "geometry": {"type": "Point", "coordinates": [-41.22832879854363, 17.009799634380983]}}]}